OBJECT_NAME,OBJECT_ID,EPOCH,MEAN_MOTION,ECCENTRICITY,INCLINATION,RA_OF_ASC_NODE,ARG_OF_PERICENTER,MEAN_ANOMALY,EPHEMERIS_TYPE,CLASSIFICATION_TYPE,NORAD_CAT_ID,ELEMENT_SET_NO,REV_AT_EPOCH,BSTAR,MEAN_MOTION_DOT,MEAN_MOTION_DDOT
DMSP 5D-3 F16 (USA 172),2003-048A,2026-06-04T05:21:10.311264,14.14481930,.0007068,98.9894,178.9652,174.6569,262.8614,0,U,28054,999,16765,.39503316E-4,.3E-6,0
METEOSAT-9 (MSG-2),2005-049B,2026-06-03T20:40:02.996256,1.00267174,.0002358,9.3308,54.2974,37.5703,156.1962,0,U,28912,999,686,0,.133E-5,0
DMSP 5D-3 F17 (USA 191),2006-050A,2026-06-04T07:12:19.611936,14.14991132,.00113253,98.7378,162.1340,92.2491,267.9980,0,U,29522,999,1060,.54063573E-4,.61E-6,0
FENGYUN 3A,2008-026A,2026-06-03T10:39:20.171808,14.19568113,.00089901,98.6881,95.5346,160.5127,199.6395,0,U,32958,999,93345,.67514327E-4,.99E-6,0
GOES 14,2009-033A,2026-06-04T06:32:51.502848,1.00115613,.00021333,1.6567,83.1964,359.4470,57.4889,0,U,35491,999,646,0,-.225E-5,0
DMSP 5D-3 F18 (USA 210),2009-057A,2026-06-04T06:29:51.745056,14.14889439,.00099524,98.9033,136.0683,290.7115,69.2991,0,U,35951,999,85776,.18524601E-3,.313E-5,0
EWS-G2 (GOES 15),2010-008A,2026-06-04T03:35:49.162848,1.00275862,.00055128,1.2421,83.0693,34.9751,252.0540,0,U,36411,999,5950,0,.31E-6,0
COMS 1,2010-032A,2026-06-01T17:43:38.675712,1.00271905,.00010648,4.7700,75.5552,351.7830,216.9341,0,U,36744,999,5093,0,-.334E-5,0
FENGYUN 3B,2010-059A,2026-06-04T07:20:55.813920,14.14837082,.00212352,98.9620,201.2655,221.4056,274.3820,0,U,37214,999,80560,-.97333379E-4,-.233E-5,0
SUOMI NPP,2011-061A,2026-06-04T05:31:22.704096,14.19514600,.00022086,98.7951,96.1950,34.5354,325.5965,0,U,37849,999,75660,.71061201E-4,.105E-5,0
METEOSAT-10 (MSG-3),2012-035B,2026-06-04T01:35:06.009792,1.00275536,.00018557,4.6405,61.0782,337.7427,237.6281,0,U,38552,999,5072,0,.5E-7,0
METOP-B,2012-049A,2026-06-04T07:23:31.009920,14.21429180,.00029365,98.6509,207.0636,48.7465,311.3965,0,U,38771,999,71143,.84006336E-4,.14E-5,0
INSAT-3D,2013-038B,2026-06-04T07:20:02.042016,1.00269387,.00009101,1.8926,82.7035,346.9220,62.6453,0,U,39216,999,4695,0,-.327E-5,0
FENGYUN 3C,2013-052A,2026-06-04T06:02:43.854144,14.15751976,.00157786,98.4980,129.7213,62.6755,297.6024,0,U,39260,999,65673,.82044495E-4,.12E-5,0
METEOR-M 2,2014-037A,2026-06-04T06:20:27.681792,14.21458413,.00070504,98.5110,131.4610,75.3706,284.8254,0,U,40069,999,61748,.17751492E-3,.346E-5,0
HIMAWARI-8,2014-060A,2026-06-03T22:49:53.475168,1.00272808,.00009815,0.0154,1.3160,86.1978,288.0371,0,U,40267,999,4262,0,-.263E-5,0
FENGYUN 2G,2014-090A,2026-06-03T19:12:45.107712,1.00279146,.00034407,5.6052,72.9774,153.7233,53.2439,0,U,40367,999,4186,0,-.292E-5,0
METEOSAT-11 (MSG-4),2015-034A,2026-06-04T03:20:20.647104,1.00276233,.00016317,3.1697,71.1815,3.3437,237.5044,0,U,40732,999,708,0,.74E-6,0
ELEKTRO-L 2,2015-074A,2026-06-04T01:30:52.284096,1.00272364,.00013296,6.6614,70.6831,280.5449,269.5208,0,U,41105,999,3837,0,-.107E-5,0
SENTINEL-3A,2016-011A,2026-06-04T07:30:14.637888,14.26736386,.00013034,98.6251,222.8807,105.8790,254.2534,0,U,41335,999,53622,.79338444E-4,.148E-5,0
INSAT-3DR,2016-054A,2026-06-04T01:56:14.495712,1.00271328,.00103249,0.1402,86.9411,189.2543,79.4009,0,U,41752,999,3568,0,-.65E-6,0
HIMAWARI-9,2016-064A,2026-06-03T21:07:09.916896,1.00270670,.00015639,0.0411,169.8886,311.0224,228.9789,0,U,41836,999,3507,0,-.263E-5,0
GOES 16,2016-071A,2026-06-04T04:30:38.689920,1.00271220,.00006796,0.3071,85.6542,317.8199,172.1703,0,U,41866,999,3497,0,-.79E-6,0
FENGYUN 4A,2016-077A,2026-06-04T07:18:17.210304,1.00276528,.00081743,2.2904,80.4243,151.6638,253.9587,0,U,41882,999,3480,0,-.345E-5,0
CYGFM05,2016-078A,2026-06-03T23:11:03.751296,15.56053261,.00076327,34.9581,348.0996,16.1223,343.9743,0,U,41884,999,52669,.34577344E-3,.24961E-3,0
CYGFM04,2016-078B,2026-06-03T20:22:49.685088,15.60725588,.0006274,34.9334,317.2233,59.2059,300.9283,0,U,41885,999,52691,.37212E-3,.32093E-3,0
CYGFM02,2016-078C,2026-06-03T19:27:55.369728,15.63583658,.00072427,34.9417,312.3956,61.1306,299.0146,0,U,41886,999,52707,.3964556E-3,.38278E-3,0
CYGFM01,2016-078D,2026-06-03T23:02:59.635680,15.56708194,.00074948,34.9412,349.3001,9.9841,350.1031,0,U,41887,999,52664,.34629487E-3,.2562E-3,0
CYGFM08,2016-078E,2026-06-03T21:04:36.575904,15.59280840,.0008331,34.9441,329.7687,42.3043,317.8324,0,U,41888,999,52689,.36745E-3,.29991E-3,0
CYGFM07,2016-078G,2026-06-03T20:07:00.473952,15.59381184,.0006662,34.9457,318.3886,58.5749,301.5627,0,U,41890,999,52691,.3724937E-3,.30504E-3,0
CYGFM03,2016-078H,2026-06-03T20:57:20.524608,15.59378968,.0006243,34.9413,320.0972,45.5037,314.6198,0,U,41891,999,52689,.36657E-3,.3001E-3,0
